XRISM                   
1 57800U 23137A   23289.75436120  .00005275  00000+0  42652-3 0  9998
2 57800  31.0016 124.8086 0010418 310.3800  49.5925 14.98257238  5964
